Unnamed: 0,NORAD_CAT_ID,OBJECT_NAME,EPOCH,MEAN_MOTION,ECCENTRICITY,INCLINATION,RA_OF_ASC_NODE,ARG_OF_PERICENTER,MEAN_ANOMALY,BSTAR,MEAN_MOTION_DOT,MEAN_MOTION_DDOT,TLE_LINE1,TLE_LINE2,SEMIMAJOR_AXIS,PERIOD,APOGEE,PERIGEE,alltitude
2552943,48481,STARLINK-2706,2022-04-07 11:11:38.923008,15.06411817,0.000188,53.0526,151.1233,46.9205,313.1941,0.00099088,0.00014513,0,1 48481U 21040BF  22097.46642272  .00014513  00000-0  99088-3 0  9996,2 48481  53.0526 151.1233 0001880  46.9205 313.1941 15.06411817 50479,6925.312,95.591,548.479,545.875,547.1703221303488
2547106,48481,STARLINK-2706,2022-04-06 11:18:33.430464,15.06390553,0.0001862,53.0532,155.5898,47.6469,312.4677,-0.00019736,-3.219e-05,0,1 48481U 21040BF  22096.47122026 -.00003219  00000-0 -19736-3 0  9991,2 48481  53.0532 155.5898 0001862  47.6469 312.4677 15.06390553 50326,6925.378,95.593,548.532,545.953,547.2523172294461
2545723,48481,STARLINK-2706,2022-04-06 04:56:23.885664,15.06397551,0.0001881,53.0531,156.7827,42.0165,318.0968,-2.486e-05,-6.52e-06,0,1 48481U 21040BF  22096.20583201 -.00000652  00000-0 -24860-4 0  9991,2 48481  53.0531 156.7827 0001881  42.0165 318.0968 15.06397551 51560,6925.356,95.592,548.524,545.918,547.135329670551
2543837,48481,STARLINK-2706,2022-04-05 20:58:41.752704,15.06415174,0.0001627,53.0528,158.2711,50.4665,309.6468,0.00092937,0.00013594,0,1 48481U 21040BF  22095.87409436  .00013594  00000-0  92937-3 0  9996,2 48481  53.0528 158.2711 0001627  50.4665 309.6468 15.06415174 51519,6925.302,95.591,548.294,546.04,547.3308915670219
2540315,48481,STARLINK-2706,2022-04-05 11:25:27.979392,15.06398857,0.0001617,53.0531,160.0585,49.2791,310.8338,0.00087162,0.00012725,0,1 48481U 21040BF  22095.47601828  .00012725  00000-0  87162-3 0  9990,2 48481  53.0531 160.0585 0001617  49.2791 310.8338 15.06398857 50177,6925.352,95.592,548.337,546.097,547.3693172533369
2537222,48481,STARLINK-2706,2022-04-04 21:05:36.605760,15.06379886,0.0001541,53.0537,162.7388,48.4382,311.6739,0.00010611,1.299e-05,0,1 48481U 21040BF  22094.87888959  .00001299  00000-0  10611-3 0  9994,2 48481  53.0537 162.7388 0001541  48.4382 311.6739 15.06379886 50081,6925.41,95.593,548.342,546.208,547.4432569647901
2537221,48481,STARLINK-2706,2022-04-04 21:05:36.605760,15.06379886,0.0001541,53.0537,162.7388,48.4382,311.6739,0.00010611,1.299e-05,0,1 48481U 21040BF  22094.87888959  .00001299  00000-0  10611-3 0  9994,2 48481  53.0537 162.7388 0001541  48.4382 311.6739 15.06379886 51363,6925.41,95.593,548.342,546.208,547.4432569647901
2533925,48481,STARLINK-2706,2022-04-04 11:32:21.674688,15.06369802,0.0001503,53.0536,164.5259,49.7587,310.3533,-6.076e-05,-1.186e-05,0,1 48481U 21040BF  22094.48080642 -.00001186  00000-0 -60760-4 0  9992,2 48481  53.0536 164.5259 0001503  49.7587 310.3533 15.06369802 50025,6925.441,95.594,548.347,546.265,547.5143118725508
2532684,48481,STARLINK-2706,2022-04-04 05:10:11.878464,15.0636175,0.0001565,53.0534,165.7174,48.7011,311.4112,-0.00015061,-2.522e-05,0,1 48481U 21040BF  22094.21541526 -.00002522  00000-0 -15061-3 0  9994,2 48481  53.0534 165.7174 0001565  48.7011 311.4112 15.06361750 51267,6925.466,95.595,548.415,546.247,547.4975758045986
2529364,48481,STARLINK-2706,2022-04-03 14:50:19.131936,15.06366193,0.0001538,53.0536,168.3971,50.1884,309.9241,-0.00034786,-5.454e-05,0,1 48481U 21040BF  22093.61827699 -.00005454  00000-0 -34786-3 0  9997,2 48481  53.0536 168.3971 0001538  50.1884 309.9241 15.06366193 49895,6925.452,95.594,548.382,546.252,547.5117393361767
2528457,48481,STARLINK-2706,2022-04-03 11:39:13.973760,15.06372909,0.0001537,53.0536,168.9924,52.0714,308.0413,-0.00032253,-5.079e-05,0,1 48481U 21040BF  22093.48557840 -.00005079  00000-0 -32253-3 0  9990,2 48481  53.0536 168.9924 0001537  52.0714 308.0413 15.06372909 51156,6925.432,95.594,548.361,546.232,547.5251192543232
2523856,48481,STARLINK-2706,2022-04-02 11:46:07.418496,15.0640365,0.0001392,53.0535,173.4602,56.7169,303.3953,-0.00023521,-3.783e-05,0,1 48481U 21040BF  22092.49036364 -.00003783  00000-0 -23521-3 0  9991,2 48481  53.0535 173.4602 0001392  56.7169 303.3953 15.06403650 51002,6925.337,95.592,548.166,546.238,547.5520492887107
2523857,48481,STARLINK-2706,2022-04-02 11:46:07.418496,15.0640365,0.0001392,53.0535,173.4602,56.7169,303.3953,-0.00023521,-3.783e-05,0,1 48481U 21040BF  22092.49036364 -.00003783  00000-0 -23521-3 0  9991,2 48481  53.0535 173.4602 0001392  56.7169 303.3953 15.06403650 49728,6925.337,95.592,548.166,546.238,547.5520492887107
2522904,48481,STARLINK-2706,2022-04-02 05:23:57.975648,15.06398569,0.0001335,53.0548,174.6547,42.2974,317.8118,-0.00059062,-9.067e-05,0,1 48481U 21040BF  22092.22497657 -.00009067  00000-0 -59062-3 0  9998,2 48481  53.0548 174.6547 0001335  42.2974 317.8118 15.06398569 50967,6925.353,95.592,548.142,546.293,547.417249344031
2518635,48481,STARLINK-2706,2022-04-01 13:28:34.629888,15.06434079,0.0001543,53.0536,177.6294,62.2447,297.8698,0.00088673,0.00012963,0,1 48481U 21040BF  22091.56151192  .00012963  00000-0  88673-3 0  9992,2 48481  53.0536 177.6294 0001543  62.2447 297.8698 15.06434079 49587,6925.244,95.59,548.178,546.041,547.4916061944703
2516681,48481,STARLINK-2706,2022-04-01 05:30:53.105184,15.06420579,0.0001724,53.0539,179.1201,62.6254,297.491,0.00054136,7.796e-05,0,1 48481U 21040BF  22091.22978131  .00007796  00000-0  54136-3 0  9990,2 48481  53.0539 179.1201 0001724  62.6254 297.4910 15.06420579 50817,6925.285,95.591,548.344,545.957,547.4774589512006
2512272,48481,STARLINK-2706,2022-03-31 13:35:30.526656,15.0639268,0.0001623,53.0543,182.0982,60.264,299.851,0.00019425,2.612e-05,0,1 48481U 21040BF  22090.56632554  .00002612  00000-0  19425-3 0  9996,2 48481  53.0543 182.0982 0001623  60.2640 299.8510 15.06392680 49431,6925.371,95.593,548.36,546.112,547.5578417931084
2511420,48481,STARLINK-2706,2022-03-31 11:59:58.297056,15.06389929,0.0001629,53.0544,182.3963,59.7027,300.4123,0.00017086,2.264e-05,0,1 48481U 21040BF  22090.49998029  .00002264  00000-0  17086-3 0  9994,2 48481  53.0544 182.3963 0001629  59.7027 300.4123 15.06389929 50705,6925.379,95.593,548.373,546.116,547.5528988875741
2510083,48481,STARLINK-2706,2022-03-31 05:37:49.276704,15.06384061,0.000177,53.0547,183.5885,50.4547,309.6598,4.2028e-05,3.44e-06,0,1 48481U 21040BF  22090.23459811  .00000344  00000-0  42028-4 0  9999,2 48481  53.0547 183.5885 0001770  50.4547 309.6598 15.06384061 50660,6925.397,95.593,548.488,546.037,547.3594983134593
2506201,48481,STARLINK-2706,2022-03-30 13:42:25.199136,15.06393514,0.0001534,53.0546,186.566,56.3415,303.772,-8.7596e-05,-1.586e-05,0,1 48481U 21040BF  22089.57112499 -.00001586  00000-0 -87596-4 0  9992,2 48481  53.0546 186.5660 0001534  56.3415 303.7720 15.06393514 49281,6925.368,95.593,548.296,546.171,547.5216834490145
2503374,48481,STARLINK-2706,2022-03-29 23:22:33.625056,15.06388199,0.0001553,53.0547,189.2467,58.8113,301.3028,5.5899e-06,-1.98e-06,0,1 48481U 21040BF  22088.97400029 -.00000198  00000-0  55899-5 0  9993,2 48481  53.0547 189.2467 0001553  58.8113 301.3028 15.06388199 50471,6925.385,95.593,548.325,546.174,547.5729781746481
2501054,48481,STARLINK-2706,2022-03-29 17:00:24.390432,15.06381811,0.0001575,53.0543,190.4378,58.9794,301.135,-8.7819e-06,-4.12e-06,0,1 48481U 21040BF  22088.70861563 -.00000412  00000-0 -87819-5 0  9995,2 48481  53.0543 190.4378 0001575  58.9794 301.1350 15.06381811 49155,6925.404,95.593,548.36,546.179,547.5855533740904
2499752,48481,STARLINK-2706,2022-03-29 13:49:19.367904,15.06388393,0.0001551,53.0544,191.0331,59.4032,300.711,-6.125e-05,-1.193e-05,0,1 48481U 21040BF  22088.57591861 -.00001193  00000-0 -61250-4 0  9998,2 48481  53.0544 191.0331 0001551  59.4032 300.7110 15.06388393 49136,6925.384,95.593,548.323,546.175,547.5806332564345
2499082,48481,STARLINK-2706,2022-03-29 12:13:46.499808,15.06389393,0.0001631,53.0534,191.3313,59.2747,300.8402,-0.00012846,-2.194e-05,0,1 48481U 21040BF  22088.50956597 -.00002194  00000-0 -12846-3 0  9990,2 48481  53.0534 191.3313 0001631  59.2747 300.8402 15.06389393 50406,6925.381,95.593,548.376,546.117,547.548024126356
2493682,48481,STARLINK-2706,2022-03-28 13:56:12.927552,15.06407936,0.0001517,53.0535,195.5,61.79,298.3242,0.00038777,5.5e-05,0,1 48481U 21040BF  22087.58070518  .00005500  00000-0  38777-3 0  9990,2 48481  53.0535 195.5000 0001517  61.7900 298.3242 15.06407936 48985,6925.324,95.592,548.24,546.139,547.5750056789625
2491402,48481,STARLINK-2706,2022-03-28 04:22:58.816416,15.06405292,0.0001487,53.0536,197.2872,59.9988,300.1149,0.00022428,3.061e-05,0,1 48481U 21040BF  22087.18262519  .00003061  00000-0  22428-3 0  9996,2 48481  53.0536 197.2872 0001487  59.9988 300.1149 15.06405292 50202,6925.332,95.592,548.227,546.168,547.5639980978326
2488541,48481,STARLINK-2706,2022-03-27 17:14:12.619104,15.06397113,0.000163,53.0547,199.3722,60.4854,299.6298,1.6751e-05,-3.2e-07,0,1 48481U 21040BF  22086.71820161 -.00000032  00000-0  16751-4 0  9996,2 48481  53.0547 199.3722 0001630  60.4854 299.6298 15.06397113 48857,6925.357,95.592,548.351,546.094,547.5463739550504
2488161,48481,STARLINK-2706,2022-03-27 14:03:07.943904,15.06393617,0.0001526,53.0534,199.9681,60.2244,299.8896,1.5501e-05,-5.1e-07,0,1 48481U 21040BF  22086.58550861 -.00000051  00000-0  15501-4 0  9991,2 48481  53.0534 199.9681 0001526  60.2244 299.8896 15.06393617 50111,6925.368,95.593,548.29,546.176,547.5908078680736
2481777,48481,STARLINK-2706,2022-03-26 14:10:01.883712,15.06403829,0.0001402,53.0546,204.4352,63.5811,296.5322,0.00013511,1.732e-05,0,1 48481U 21040BF  22085.59029958  .00001732  00000-0  13511-3 0  9993,2 48481  53.0546 204.4352 0001402  63.5811 296.5322 15.06403829 48684,6925.337,95.592,548.173,546.231,547.6520408566606
2480631,48481,STARLINK-2706,2022-03-26 12:34:29.623872,15.06401747,0.0001461,53.0544,204.7331,63.0141,297.0997,0.00013271,1.696e-05,0,1 48481U 21040BF  22085.52395398  .00001696  00000-0  13271-3 0  9992,2 48481  53.0544 204.7331 0001461  63.0141 297.0997 15.06401747 48678,6925.343,95.592,548.22,546.196,547.6292820213682
